[
    {
        "Altitude(m)": 607911.0227421387,
        "Argument of Periapsis(deg)": 0.0,
        "Eccentricity": 0.0,
        "Inclination(deg)": 60.0,
        "Latitude(deg)": -14.293021495415807,
        "Longitude(deg)": -116.55736253832035,
        "Mean Anomaly(deg)": 196.36360000000002,
        "RAAN(deg)": 155.0,
        "Satellite Name": "Test1 694",
        "Satellite Number": 694,
        "Semi-Major Axis(m)": 6980739.136638005,
        "Time(s)": 0
    },
    {
        "Altitude(m)": 608060.2568393239,
        "Argument of Periapsis(deg)": 0.00010418945913296404,
        "Eccentricity": 0.0,
        "Inclination(deg)": 60.0,
        "Latitude(deg)": -14.826683093227249,
        "Longitude(deg)": -116.26875338879698,
        "Mean Anomaly(deg)": 196.9837061454618,
        "RAAN(deg)": 154.99957995086027,
        "Satellite Name": "Test1 694",
        "Satellite Number": 694,
        "Semi-Major Axis(m)": 6980739.136638005,
        "Time(s)": 10
    }
]